<?xml version='1.0' encoding='utf-8'?>
<gpx xmlns="http://www.topografix.com/GPX/1/1" version="1.1" creator="Little Secret"><rte><name>Kos 2026</name><rtept lat="36.891346" lon="27.301617"><name>Kos Marina</name></rtept><rtept lat="36.9333" lon="27.1333"><name>Pserimos Bay</name></rtept><rtept lat="36.9637" lon="27.109"><name>Plati Island</name></rtept><rtept lat="36.95" lon="26.967"><name>Pothia</name></rtept><rtept lat="37.13167" lon="26.85194"><name>Lakki</name></rtept><rtept lat="36.891346" lon="27.301617"><name>Kos Marina</name></rtept></rte><wpt lat="36.891346" lon="27.301617"><name>Kos Marina</name></wpt><wpt lat="36.9333" lon="27.1333"><name>Pserimos Bay</name></wpt><wpt lat="36.9637" lon="27.109"><name>Plati Island</name></wpt><wpt lat="36.95" lon="26.967"><name>Pothia</name></wpt><wpt lat="36.97449" lon="27.02673"><name>Vathy / Rina Harbour</name></wpt><wpt lat="37.13167" lon="26.85194"><name>Lakki</name></wpt><wpt lat="37.14979" lon="26.86193"><name>Pandeli Beach</name></wpt></gpx>