<?xml version='1.0' encoding='utf-8'?>
<kml xmlns="http://www.opengis.net/kml/2.2"><Document><name>Kos 2026</name><Placemark><name>Kos Marina</name><description>Charterbasis südöstlich des alten Hafens von Kos. Geeignet für Check-in, Proviantierung und Bootsübernahme. Liegeplatz, Rückgabezeit, Tankregel und Nachtansteuerung mit dem Vercharterer abstimmen.</description><Point><coordinates>27.301617,36.891346,0</coordinates></Point></Placemark><Placemark><name>Pserimos Bay</name><description>Kurze Einsegel-Etappe mit Strand, Tavernen und klarem Wasser. Die Koordinate bezeichnet den Buchtbereich, nicht einen nautisch geprüften Ansteuerungswegpunkt. Schwell, Wind, Tiefe und Schwojkreis vor Ort prüfen.</description><Point><coordinates>27.1333,36.9333,0</coordinates></Point></Placemark><Placemark><name>Plati Island</name><description>Optionaler Planungsstopp zwischen Pserimos und Kalymnos. Nicht als Navigations- oder Ansteuerungswegpunkt verwenden. Sperrzonen, Tiefen, Wind und lokale Regeln mit aktuellen nautischen Quellen prüfen.</description><Point><coordinates>27.109,36.9637,0</coordinates></Point></Placemark><Placemark><name>Pothia</name><description>Hauptort und Haupthafen von Kalymnos mit maritimer und Schwammtaucher-Tradition. Die Ortskoordinate ist keine Mooringposition. Freie Plätze, Tiefe und Seitenwind vor dem Manöver prüfen.</description><Point><coordinates>26.967,36.95,0</coordinates></Point></Placemark><Placemark><name>Vathy / Rina Harbour</name><description>Kleiner Hafen am Ende einer engen, fjordähnlichen Bucht an der Ostseite von Kalymnos. Enges Revier. Fender und Leinen früh vorbereiten und nicht allein anhand des Kartenmarkers einlaufen.</description><Point><coordinates>27.02673,36.97449,0</coordinates></Point></Placemark><Placemark><name>Lakki</name><description>Ort am Kopf einer großen Naturbucht, bekannt für italienische rationalistische Architektur. Liegeplatz, Strom, Wasser und aktuelle Hafenhinweise vor dem Einlaufen verifizieren.</description><Point><coordinates>26.85194,37.13167,0</coordinates></Point></Placemark><Placemark><name>Pandeli Beach</name><description>Küstenort unterhalb der Windmühlen und der Burg von Leros. Ideal für Landgang, Baden und Abendessen. Nicht ohne Prüfung von Schutz, Grund, Tiefe und Schwell als Übernachtungsankerpunkt verwenden. Lakki ist die konservativere Hafenoption.</description><Point><coordinates>26.86193,37.14979,0</coordinates></Point></Placemark><Placemark><name>Kos 2026 Planungsroute</name><LineString><tessellate>1</tessellate><coordinates>27.301617,36.891346,0 27.1333,36.9333,0 27.109,36.9637,0 26.967,36.95,0 26.85194,37.13167,0 27.301617,36.891346,0</coordinates></LineString></Placemark></Document></kml>